STARLINK-37072          
1 68153U 26049M   26078.51169095 -.00162025  12479-4 -25962-3 0  9995
2 68153  97.2788  98.0760 0002614  12.6003 347.5342 16.03506250   951
STARLINK-36241          
1 68154U 26049N   26078.51098387 -.00136495  95698-5 -21485-3 0  9994
2 68154  97.2787  98.0764 0002702  13.1240 347.0110 16.03790974   958
STARLINK-37048          
1 68155U 26049P   26078.32317889  .00101037  66606-5  15061-3 0  9997
2 68155  97.2786  97.8732 0002251 149.8692 210.2719 16.04907380   922
STARLINK-36313          
1 68156U 26049Q   26078.51069617 -.00172305  13864-4 -26937-3 0  9991
2 68156  97.2787  98.0771 0002314   1.4479 358.6808 16.03927223   952
STARLINK-37064          
1 68157U 26049R   26078.51127920 -.00144348  10411-4 -22898-3 0  9997
2 68157  97.2784  98.0764 0002238 357.8304   2.2966 16.03667729   951
STARLINK-37069          
1 68158U 26049S   26078.50941725  .01093981  68408-3  14785-2 0  9992
2 68158  97.2784  98.0788 0001368   7.2640 352.8662 16.06600253   959
STARLINK-37053          
1 68159U 26049T   26078.32241881  .00065181  41103-5  95454-4 0  9998
2 68159  97.2784  97.8738 0002531 141.0873 219.0591 16.05261971   921
STARLINK-36306          
1 68160U 26049U   26078.50927702 -.00201573  18201-4 -30344-3 0  9990
2 68160  97.2782  98.0789 0002364  13.0399 347.0943 16.04569636   959
STARLINK-37057          
1 68161U 26049V   26079.82223327 -.00764003  19799-3 -15396-2 0  9992
2 68161  97.2774  99.5066 0000516  61.6825 298.4505 15.99652779  1166
STARLINK-37013          
1 68162U 26049W   26080.69511024 -.00432164  66806-4 -96710-3 0  9996
2 68162  97.2751 100.4630 0002419 181.7796 178.3473 15.97720878  1306
STARLINK-36958          
1 68163U 26049X   26080.82196290 -.00746686  18327-3 -17840-2 0  9993
2 68163  97.2737 100.5959 0001991 109.9976 250.1515 15.96566451  1324
STARLINK-37002          
1 68164U 26049Y   26079.82054813 -.00481185  84172-4 -92966-3 0  9991
2 68164  97.2773  99.5096 0000568 170.3743 189.7546 16.00359997  1161
STARLINK-36971          
1 68165U 26049Z   26080.38249057 -.01621138  80041-3 -32496-2 0  9997
2 68165  97.2764 100.1226 0008221 134.8506 225.3442 15.99800071  1255
STARLINK-36273          
1 68166U 26049AA  26079.75630469 -.00306844  36957-4 -56287-3 0  9994
2 68166  97.2750  99.4439 0000648 211.7263 148.3977 16.01239572  1159
STARLINK-36969          
1 68167U 26050A   26078.57016830 -.00762286  19812-3 -16788-2 0  9993
2 68167  53.1618 232.5443 0000488 318.1927  41.9065 15.97343210  2033
STARLINK-36984          
1 68168U 26050B   26078.56997631 -.00752821  19400-3 -16463-2 0  9997
2 68168  53.1620 232.5441 0000565 333.0752  27.0248 15.97468217  2036
